{
  "type": "FeatureCollection",
  "features": [
    {
      "type": "Feature",
      "properties": {
        "norad_id": 40010,
        "name": "KAZEOSAT 2",
        "group": "resource",
        "lat": 49.985603376882835,
        "lon": -170.8515597576163,
        "alt_km": 612.1571286353337,
        "timestamp": "2025-12-20T07:33:50.460678+00:00",
        "meta_object_name": "KAZEOSAT 2",
        "meta_object_id": "2014-033A",
        "meta_epoch": "2025-12-19T21:38:05.617824",
        "meta_mean_motion": 14.85177742,
        "meta_eccentricity": 0.00082201,
        "meta_inclination": 97.5499,
        "meta_ra_of_asc_node": 197.8459,
        "meta_arg_of_pericenter": 181.6739,
        "meta_mean_anomaly": 178.445,
        "meta_ephemeris_type": 0,
        "meta_classification_type": "U",
        "meta_norad_cat_id": 40010,
        "meta_element_set_no": 999,
        "meta_rev_at_epoch": 62234,
        "meta_bstar": 1.9576454e-05,
        "meta_mean_motion_dot": 1.18e-06,
        "meta_mean_motion_ddot": 0,
        "tle_line1": "1 40010U 14033A   25353.90145391  .00000118  00000+0  19576-4 0  9997",
        "tle_line2": "2 40010  97.5499 197.8459 0008220 181.6739 178.4450 14.85177742622342"
      },
      "geometry": {
        "type": "Point",
        "coordinates": [
          -170.8515597576163,
          49.985603376882835
        ]
      }
    },
    {
      "type": "Feature",
      "properties": {
        "norad_id": 40011,
        "name": "HODOYOSHI-4",
        "group": "resource",
        "lat": -21.740856603209036,
        "lon": -0.20299992039771028,
        "alt_km": 596.2816817779667,
        "timestamp": "2025-12-20T07:33:50.460688+00:00",
        "meta_object_name": "HODOYOSHI-4",
        "meta_object_id": "2014-033B",
        "meta_epoch": "2025-12-19T22:35:16.480608",
        "meta_mean_motion": 14.87505718,
        "meta_eccentricity": 0.00237249,
        "meta_inclination": 97.5405,
        "meta_ra_of_asc_node": 182.4695,
        "meta_arg_of_pericenter": 176.4834,
        "meta_mean_anomaly": 183.6554,
        "meta_ephemeris_type": 0,
        "meta_classification_type": "U",
        "meta_norad_cat_id": 40011,
        "meta_element_set_no": 999,
        "meta_rev_at_epoch": 62215,
        "meta_bstar": 0.00017409677,
        "meta_mean_motion_dot": 1.534e-05,
        "meta_mean_motion_ddot": 0,
        "tle_line1": "1 40011U 14033B   25353.94116297  .00001534  00000+0  17410-3 0  9992",
        "tle_line2": "2 40011  97.5405 182.4695 0023724 176.4834 183.6554 14.87505718622158"
      },
      "geometry": {
        "type": "Point",
        "coordinates": [
          -0.20299992039771028,
          -21.740856603209036
        ]
      }
    },
    {
      "type": "Feature",
      "properties": {
        "norad_id": 40013,
        "name": "DEIMOS-2",
        "group": "resource",
        "lat": 31.008818034022866,
        "lon": 54.4723747856818,
        "alt_km": 586.2041122419269,
        "timestamp": "2025-12-20T07:33:50.460699+00:00",
        "meta_object_name": "DEIMOS-2",
        "meta_object_id": "2014-033D",
        "meta_epoch": "2025-12-19T21:14:59.403264",
        "meta_mean_motion": 14.93004941,
        "meta_eccentricity": 0.00014386,
        "meta_inclination": 97.6068,
        "meta_ra_of_asc_node": 229.4495,
        "meta_arg_of_pericenter": 105.7316,
        "meta_mean_anomaly": 254.4062,
        "meta_ephemeris_type": 0,
        "meta_classification_type": "U",
        "meta_norad_cat_id": 40013,
        "meta_element_set_no": 999,
        "meta_rev_at_epoch": 61096,
        "meta_bstar": 0.00024796349,
        "meta_mean_motion_dot": 2.523e-05,
        "meta_mean_motion_ddot": 0,
        "tle_line1": "1 40013U 14033D   25353.88540976  .00002523  00000+0  24796-3 0  9996",
        "tle_line2": "2 40013  97.6068 229.4495 0001438 105.7316 254.4062 14.93004941610960"
      },
      "geometry": {
        "type": "Point",
        "coordinates": [
          54.4723747856818,
          31.008818034022866
        ]
      }
    },
    {
      "type": "Feature",
      "properties": {
        "norad_id": 40015,
        "name": "HODOYOSHI-3",
        "group": "resource",
        "lat": 53.435586777103815,
        "lon": 149.42158102214387,
        "alt_km": 631.1442532488145,
        "timestamp": "2025-12-20T07:33:50.460710+00:00",
        "meta_object_name": "HODOYOSHI-3",
        "meta_object_id": "2014-033F",
        "meta_epoch": "2025-12-19T21:36:55.920672",
        "meta_mean_motion": 14.84829005,
        "meta_eccentricity": 0.00322047,
        "meta_inclination": 97.6204,
        "meta_ra_of_asc_node": 159.4244,
        "meta_arg_of_pericenter": 223.5409,
        "meta_mean_anomaly": 136.3264,
        "meta_ephemeris_type": 0,
        "meta_classification_type": "U",
        "meta_norad_cat_id": 40015,
        "meta_element_set_no": 999,
        "meta_rev_at_epoch": 62101,
        "meta_bstar": 0.00013959445,
        "meta_mean_motion_dot": 1.144e-05,
        "meta_mean_motion_ddot": 0,
        "tle_line1": "1 40015U 14033F   25353.90064723  .00001144  00000+0  13959-3 0  9999",
        "tle_line2": "2 40015  97.6204 159.4244 0032204 223.5409 136.3264 14.84829005621011"
      },
      "geometry": {
        "type": "Point",
        "coordinates": [
          149.42158102214387,
          53.435586777103815
        ]
      }
    },
    {
      "type": "Feature",
      "properties": {
        "norad_id": 40053,
        "name": "SPOT 7",
        "group": "resource",
        "lat": -21.411965049999438,
        "lon": -126.98116360439175,
        "alt_km": 696.5906317837926,
        "timestamp": "2025-12-20T07:33:50.460721+00:00",
        "meta_object_name": "SPOT 7",
        "meta_object_id": "2014-034A",
        "meta_epoch": "2025-12-19T22:25:28.367040",
        "meta_mean_motion": 14.60741794,
        "meta_eccentricity": 0.00015566,
        "meta_inclination": 98.0904,
        "meta_ra_of_asc_node": 55.8444,
        "meta_arg_of_pericenter": 85.3979,
        "meta_mean_anomaly": 274.7399,
        "meta_ephemeris_type": 0,
        "meta_classification_type": "U",
        "meta_norad_cat_id": 40053,
        "meta_element_set_no": 999,
        "meta_rev_at_epoch": 61096,
        "meta_bstar": 5.6573621e-05,
        "meta_mean_motion_dot": 2.3e-06,
        "meta_mean_motion_ddot": 0,
        "tle_line1": "1 40053U 14034A   25353.93435610  .00000230  00000+0  56574-4 0  9998",
        "tle_line2": "2 40053  98.0904  55.8444 0001556  85.3979 274.7399 14.60741794610968"
      },
      "geometry": {
        "type": "Point",
        "coordinates": [
          -126.98116360439175,
          -21.411965049999438
        ]
      }
    },
    {
      "type": "Feature",
      "properties": {
        "norad_id": 40072,
        "name": "SKYSAT-B",
        "group": "resource",
        "lat": 38.25925132690584,
        "lon": 125.08259858893267,
        "alt_km": 598.9056226366274,
        "timestamp": "2025-12-20T07:33:50.460731+00:00",
        "meta_object_name": "SKYSAT-B",
        "meta_object_id": "2014-037D",
        "meta_epoch": "2025-12-19T19:37:46.870176",
        "meta_mean_motion": 14.87350414,
        "meta_eccentricity": 0.0006578,
        "meta_inclination": 98.3621,
        "meta_ra_of_asc_node": 297.898,
        "meta_arg_of_pericenter": 130.2703,
        "meta_mean_anomaly": 229.9088,
        "meta_ephemeris_type": 0,
        "meta_classification_type": "U",
        "meta_norad_cat_id": 40072,
        "meta_element_set_no": 999,
        "meta_rev_at_epoch": 61929,
        "meta_bstar": 0.00013824731,
        "meta_mean_motion_dot": 1.188e-05,
        "meta_mean_motion_ddot": 0,
        "tle_line1": "1 40072U 14037D   25353.81790359  .00001188  00000+0  13825-3 0  9997",
        "tle_line2": "2 40072  98.3621 297.8980 0006578 130.2703 229.9088 14.87350414619291"
      },
      "geometry": {
        "type": "Point",
        "coordinates": [
          125.08259858893267,
          38.25925132690584
        ]
      }
    },
    {
      "type": "Feature",
      "properties": {
        "norad_id": 40115,
        "name": "WORLDVIEW-3 (WV-3)",
        "group": "resource",
        "lat": -25.354367758231504,
        "lon": 70.26331066311214,
        "alt_km": 621.4737377969514,
        "timestamp": "2025-12-20T07:33:50.460742+00:00",
        "meta_object_name": "WORLDVIEW-3 (WV-3)",
        "meta_object_id": "2014-048A",
        "meta_epoch": "2025-12-19T21:58:26.607936",
        "meta_mean_motion": 14.84662854,
        "meta_eccentricity": 0.00017717,
        "meta_inclination": 97.8772,
        "meta_ra_of_asc_node": 66.1069,
        "meta_arg_of_pericenter": 137.3575,
        "meta_mean_anomaly": 222.7777,
        "meta_ephemeris_type": 0,
        "meta_classification_type": "U",
        "meta_norad_cat_id": 40115,
        "meta_element_set_no": 999,
        "meta_rev_at_epoch": 61530,
        "meta_bstar": 9.7151579e-05,
        "meta_mean_motion_dot": 7.68e-06,
        "meta_mean_motion_ddot": 0,
        "tle_line1": "1 40115U 14048A   25353.91558574  .00000768  00000+0  97152-4 0  9998",
        "tle_line2": "2 40115  97.8772  66.1069 0001771 137.3575 222.7777 14.84662854615305"
      },
      "geometry": {
        "type": "Point",
        "coordinates": [
          70.26331066311214,
          -25.354367758231504
        ]
      }
    }
  ]
}